<?xml version='1.0' encoding='utf-8'?>
<q:quakeml xmlns:q="http://quakeml.org/xmlns/quakeml/1.2" xmlns="http://quakeml.org/xmlns/bed/1.2">
  <eventParameters publicID="smi:local/d293b948-662e-453c-ab71-461caeb4b65a">
    <event publicID="smi:scs/0.7/cdsa20100421051050GL">
      <preferredOriginID>smi:scs/0.7/Origin#20100421051050GL#20100421051050SA.inp.loc.nlloc</preferredOriginID>
      <preferredMagnitudeID>smi:scs/0.7/Magnitude#20100421051050GL#20100421051050SA.inp.loc.hypo71</preferredMagnitudeID>
      <type>earthquake</type>
      <typeCertainty>known</typeCertainty>
      <description>
        <text>Lesser Antilles</text>
        <type>region name</type>
      </description>
      <creationInfo>
        <agencyID>CDSA</agencyID>
        <author>bosson@mitre</author>
        <creationTime>2015-10-24T09:24:01.000000Z</creationTime>
      </creationInfo>
      <origin publicID="smi:scs/0.7/Origin#20100421051050GL#20100421051031GL.sum.loc.hypo71">
        <time>
          <value>2010-04-21T05:10:31.550000Z</value>
        </time>
        <latitude>
          <value>15.24616667</value>
          <uncertainty>3.2</uncertainty>
        </latitude>
        <longitude>
          <value>-61.324</value>
          <uncertainty>3.2</uncertainty>
        </longitude>
        <depth>
          <value>141780.0</value>
          <uncertainty>1200.0</uncertainty>
        </depth>
        <methodID>smi:scs/0.7/hypo71</methodID>
        <earthModelID>smi:scs/0.7/Dorel_(1979)</earthModelID>
        <quality>
          <associatedPhaseCount>35</associatedPhaseCount>
          <usedPhaseCount>35</usedPhaseCount>
          <associatedStationCount>35</associatedStationCount>
          <usedStationCount>35</usedStationCount>
          <standardError>0.22</standardError>
          <azimuthalGap>136.0</azimuthalGap>
        </quality>
        <evaluationMode>manual</evaluationMode>
        <evaluationStatus>confirmed</evaluationStatus>
        <creationInfo>
          <agencyID>ovsg.sum.h71.d79t</agencyID>
        </creationInfo>
      </origin>
      <origin publicID="smi:scs/0.7/Origin#20100421051050GL#20100421051031MQ.sum.loc.hypo71">
        <time>
          <value>2010-04-21T05:10:31.570000Z</value>
        </time>
        <latitude>
          <value>15.3015</value>
          <uncertainty>5.9</uncertainty>
        </latitude>
        <longitude>
          <value>-61.17166667</value>
          <uncertainty>5.9</uncertainty>
        </longitude>
        <depth>
          <value>142000.0</value>
          <uncertainty>2000.0</uncertainty>
        </depth>
        <methodID>smi:scs/0.7/hypo71</methodID>
        <earthModelID>smi:scs/0.7/Dorel_(1979)</earthModelID>
        <quality>
          <associatedPhaseCount>21</associatedPhaseCount>
          <usedPhaseCount>21</usedPhaseCount>
          <associatedStationCount>21</associatedStationCount>
          <usedStationCount>21</usedStationCount>
          <standardError>0.2</standardError>
          <azimuthalGap>182.0</azimuthalGap>
        </quality>
        <evaluationMode>manual</evaluationMode>
        <evaluationStatus>confirmed</evaluationStatus>
        <creationInfo>
          <agencyID>ovsm.sum.h71.d79t</agencyID>
        </creationInfo>
      </origin>
      <origin publicID="smi:scs/0.7/Origin#20100421051050GL#20100421051050GL.inp.loc.hypo71">
        <time>
          <value>2010-04-21T05:10:31.500000Z</value>
        </time>
        <latitude>
          <value>15.26666667</value>
          <uncertainty>1.54</uncertainty>
        </latitude>
        <longitude>
          <value>-61.29333333</value>
          <uncertainty>3.63</uncertainty>
        </longitude>
        <depth>
          <value>141340.0</value>
          <uncertainty>1330.0</uncertainty>
        </depth>
        <methodID>smi:scs/0.7/hypo71</methodID>
        <earthModelID>smi:scs/0.7/Dorel_(1979)</earthModelID>
        <quality>
          <associatedPhaseCount>42</associatedPhaseCount>
          <usedPhaseCount>42</usedPhaseCount>
          <associatedStationCount>34</associatedStationCount>
          <usedStationCount>34</usedStationCount>
          <standardError>0.24</standardError>
          <azimuthalGap>135.0</azimuthalGap>
          <minimumDistance>0.07919366451</minimumDistance>
        </quality>
        <evaluationMode>manual</evaluationMode>
        <evaluationStatus>confirmed</evaluationStatus>
        <creationInfo>
          <agencyID>ovsg.inp.h71.d79t</agencyID>
        </creationInfo>
        <arrival publicID="smi:local/e62ec9d1-847e-44a3-abe8-4f6b77d9d916">
          <pickID>smi:scs/0.7/Pick#20100421051050GL#20100421051050GL.inp.loc.hypo71#ANWB#51110.04</pickID>
          <phase>P</phase>
          <azimuth>349.0</azimuth>
          <distance>2.437904968</distance>
          <timeResidual>-1.61</timeResidual>
          <timeWeight>0.25</timeWeight>
        </arrival>
        <arrival publicID="smi:local/8ef2a22c-bbc2-499d-acac-a0bfa2710136">
          <pickID>smi:scs/0.7/Pick#20100421051050GL#20100421051050GL.inp.loc.hypo71#BBGH#51115.20</pickID>
          <phase>P</phase>
          <azimuth>141.0</azimuth>
          <distance>2.703383729</distance>
          <timeResidual>0.1</timeResidual>
          <timeWeight>0.75</timeWeight>
        </arrival>
        <arrival publicID="smi:local/738074b0-3f9d-4625-8f23-573feae4d528">
          <pickID>smi:scs/0.7/Pick#20100421051050GL#20100421051050GL.inp.loc.hypo71#BBL#51051.39</pickID>
          <phase>P</phase>
          <azimuth>327.0</azimuth>
          <distance>0.309575234</distance>
          <timeResidual>0.3</timeResidual>
          <timeWeight>1.0</timeWeight>
        </arrival>
        <arrival publicID="smi:local/3a96b946-b2f6-4477-9bb2-8acdb2933ab1">
          <pickID>smi:scs/0.7/Pick#20100421051050GL#20100421051050GL.inp.loc.hypo71#CAG#51055.20</pickID>
          <phase>P</phase>
          <azimuth>335.0</azimuth>
          <distance>0.8603311735</distance>
          <timeResidual>0.27</timeResidual>
          <timeWeight>0.25</timeWeight>
        </arrival>
        <arrival publicID="smi:local/fcbb532c-7b20-4e79-afa6-d458cf0b15bc">
          <pickID>smi:scs/0.7/Pick#20100421051050GL#20100421051050GL.inp.loc.hypo71#CDEL#51054.50</pickID>
          <phase>P</phase>
          <azimuth>335.0</azimuth>
          <distance>0.8486321094</distance>
          <timeResidual>-0.27</timeResidual>
          <timeWeight>0.25</timeWeight>
        </arrival>
        <arrival publicID="smi:local/b65ec92e-2c6f-4e3a-a632-a04b57b19531">
          <pickID>smi:scs/0.7/Pick#20100421051050GL#20100421051050GL.inp.loc.hypo71#DHS#51056.83</pickID>
          <phase>P</phase>
          <azimuth>336.0</azimuth>
          <distance>1.100611951</distance>
          <timeResidual>0.17</timeResidual>
          <timeWeight>1.0</timeWeight>
        </arrival>
        <arrival publicID="smi:local/45766f40-a9ab-440e-be3e-ec8efb219f4a">
          <pickID>smi:scs/0.7/Pick#20100421051050GL#20100421051050GL.inp.loc.hypo71#DHS#51075.83</pickID>
          <phase>S</phase>
          <azimuth>336.0</azimuth>
          <distance>1.100611951</distance>
          <timeResidual>0.04</timeResidual>
          <timeWeight>0.25</timeWeight>
        </arrival>
        <arrival publicID="smi:local/be5a9e9d-61f3-4a5a-8ea3-b7f65a65216f">
          <pickID>smi:scs/0.7/Pick#20100421051050GL#20100421051050GL.inp.loc.hypo71#DLPL#51050.11</pickID>
          <phase>P</phase>
          <azimuth>34.0</azimuth>
          <distance>0.07919366451</distance>
          <timeResidual>-0.35</timeResidual>
          <timeWeight>0.25</timeWeight>
        </arrival>
        <arrival publicID="smi:local/c46d073e-a5fa-4919-a270-8c964337ebe5">
          <pickID>smi:scs/0.7/Pick#20100421051050GL#20100421051050GL.inp.loc.hypo71#DLPL#51064.94</pickID>
          <phase>S</phase>
          <azimuth>34.0</azimuth>
          <distance>0.07919366451</distance>
          <timeResidual>0.08</timeResidual>
          <timeWeight>0.25</timeWeight>
        </arrival>
        <arrival publicID="smi:local/30ae8403-7126-4595-b99d-3ab3b28a3887">
          <pickID>smi:scs/0.7/Pick#20100421051050GL#20100421051050GL.inp.loc.hypo71#DOG#51054.12</pickID>
          <phase>P</phase>
          <azimuth>337.0</azimuth>
          <distance>0.8234341253</distance>
          <timeResidual>-0.06</timeResidual>
          <timeWeight>0.25</timeWeight>
        </arrival>
        <arrival publicID="smi:local/fa7d5165-c04e-4da4-8381-58883a6f6f3a">
          <pickID>smi:scs/0.7/Pick#20100421051050GL#20100421051050GL.inp.loc.hypo71#ECG#51054.52</pickID>
          <phase>P</phase>
          <azimuth>335.0</azimuth>
          <distance>0.8459323254</distance>
          <timeResidual>-0.31</timeResidual>
          <timeWeight>1.0</timeWeight>
        </arrival>
        <arrival publicID="smi:local/1962116a-7d30-4e80-b8c9-834c4ce77a57">
          <pickID>smi:scs/0.7/Pick#20100421051050GL#20100421051050GL.inp.loc.hypo71#FDF#51052.26</pickID>
          <phase>P</phase>
          <azimuth>165.0</azimuth>
          <distance>0.5480561555</distance>
          <timeResidual>-0.04</timeResidual>
          <timeWeight>1.0</timeWeight>
        </arrival>
        <arrival publicID="smi:local/bf17a8a7-edd7-4e66-b4f7-81bdda77c9d2">
          <pickID>smi:scs/0.7/Pick#20100421051050GL#20100421051050GL.inp.loc.hypo71#FDF#51068.07</pickID>
          <phase>S</phase>
          <azimuth>165.0</azimuth>
          <distance>0.5480561555</distance>
          <timeResidual>-0.03</timeResidual>
          <timeWeight>0.5</timeWeight>
        </arrival>
        <arrival publicID="smi:local/76ae26d6-8982-4fae-a8d1-d2a583c4451a">
          <pickID>smi:scs/0.7/Pick#20100421051050GL#20100421051050GL.inp.loc.hypo71#FNG#51054.64</pickID>
          <phase>P</phase>
          <azimuth>334.0</azimuth>
          <distance>0.8765298776</distance>
          <timeResidual>-0.22</timeResidual>
          <timeWeight>0.5</timeWeight>
        </arrival>
        <arrival publicID="smi:local/178375d8-5618-4414-a9a9-d5d30c959ca1">
          <pickID>smi:scs/0.7/Pick#20100421051050GL#20100421051050GL.inp.loc.hypo71#GRGR#51120.31</pickID>
          <phase>P</phase>
          <azimuth>186.0</azimuth>
          <distance>3.139848812</distance>
          <timeResidual>-0.46</timeResidual>
          <timeWeight>0.25</timeWeight>
        </arrival>
        <arrival publicID="smi:local/5ee52591-7908-4123-aed0-ba8a5dd35e6d">
          <pickID>smi:scs/0.7/Pick#20100421051050GL#20100421051050GL.inp.loc.hypo71#HMG#51054.37</pickID>
          <phase>P</phase>
          <azimuth>331.0</azimuth>
          <distance>0.8126349892</distance>
          <timeResidual>0.29</timeResidual>
          <timeWeight>0.75</timeWeight>
        </arrival>
        <arrival publicID="smi:local/da7bdafc-75db-4f08-b1aa-14057e817c32">
          <pickID>smi:scs/0.7/Pick#20100421051050GL#20100421051050GL.inp.loc.hypo71#HMG#51071.27</pickID>
          <phase>S</phase>
          <azimuth>331.0</azimuth>
          <distance>0.8126349892</distance>
          <timeResidual>0.04</timeResidual>
          <timeWeight>0.25</timeWeight>
        </arrival>
        <arrival publicID="smi:local/7feba996-2182-4935-8a9a-0ebbca371a42">
          <pickID>smi:scs/0.7/Pick#20100421051050GL#20100421051050GL.inp.loc.hypo71#LKGL#51054.58</pickID>
          <phase>P</phase>
          <azimuth>335.0</azimuth>
          <distance>0.8504319654</distance>
          <timeResidual>-0.27</timeResidual>
          <timeWeight>0.75</timeWeight>
        </arrival>
        <arrival publicID="smi:local/c9ec4c24-ed43-4788-ad46-d2326780545f">
          <pickID>smi:scs/0.7/Pick#20100421051050GL#20100421051050GL.inp.loc.hypo71#LKGL#51071.54</pickID>
          <phase>S</phase>
          <azimuth>335.0</azimuth>
          <distance>0.8504319654</distance>
          <timeResidual>-1.05</timeResidual>
          <timeWeight>0.25</timeWeight>
        </arrival>
        <arrival publicID="smi:local/a29db60b-913a-4485-a63c-ed1c65d67f13">
          <pickID>smi:scs/0.7/Pick#20100421051050GL#20100421051050GL.inp.loc.hypo71#LZG#51055.73</pickID>
          <phase>P</phase>
          <azimuth>332.0</azimuth>
          <distance>0.9872210223</distance>
          <timeResidual>0.35</timeResidual>
          <timeWeight>0.75</timeWeight>
        </arrival>
        <arrival publicID="smi:local/c5b28bb2-c301-4f61-887f-95ac464ada77">
          <pickID>smi:scs/0.7/Pick#20100421051050GL#20100421051050GL.inp.loc.hypo71#MAG#51054.35</pickID>
          <phase>P</phase>
          <azimuth>336.0</azimuth>
          <distance>0.8171346292</distance>
          <timeResidual>-0.04</timeResidual>
          <timeWeight>0.75</timeWeight>
        </arrival>
        <arrival publicID="smi:local/8428946e-5ab2-48b5-9384-8b8dee0960f6">
          <pickID>smi:scs/0.7/Pick#20100421051050GL#20100421051050GL.inp.loc.hypo71#MBWH#5112.71</pickID>
          <phase>P</phase>
          <azimuth>330.0</azimuth>
          <distance>1.704463643</distance>
          <timeResidual>-0.24</timeResidual>
          <timeWeight>0.5</timeWeight>
        </arrival>
        <arrival publicID="smi:local/a4f3b906-2d4e-4317-b634-d15dc9f907d7">
          <pickID>smi:scs/0.7/Pick#20100421051050GL#20100421051050GL.inp.loc.hypo71#MCLT#5110.98</pickID>
          <phase>P</phase>
          <azimuth>155.0</azimuth>
          <distance>1.716162707</distance>
          <timeResidual>-1.91</timeResidual>
          <timeWeight>0.5</timeWeight>
        </arrival>
        <arrival publicID="smi:local/afc488d7-e0b7-45df-b012-196b66e4fbee">
          <pickID>smi:scs/0.7/Pick#20100421051050GL#20100421051050GL.inp.loc.hypo71#MCLT#51122.94</pickID>
          <phase>S</phase>
          <azimuth>155.0</azimuth>
          <distance>1.716162707</distance>
          <timeResidual>-3.8</timeResidual>
          <timeWeight>0.0</timeWeight>
        </arrival>
        <arrival publicID="smi:local/8393d05e-d231-4925-a9f5-2f741f068337">
          <pickID>smi:scs/0.7/Pick#20100421051050GL#20100421051050GL.inp.loc.hypo71#MGG#51052.65</pickID>
          <phase>P</phase>
          <azimuth>358.0</azimuth>
          <distance>0.6461483081</distance>
          <timeResidual>-0.06</timeResidual>
          <timeWeight>0.5</timeWeight>
        </arrival>
        <arrival publicID="smi:local/b845e396-003a-488f-951a-4f215ba7e97a">
          <pickID>smi:scs/0.7/Pick#20100421051050GL#20100421051050GL.inp.loc.hypo71#MMLL#51054.50</pickID>
          <phase>P</phase>
          <azimuth>335.0</azimuth>
          <distance>0.8549316055</distance>
          <timeResidual>-0.3</timeResidual>
          <timeWeight>0.25</timeWeight>
        </arrival>
        <arrival publicID="smi:local/a77d8698-2721-4fd9-92c7-a8e77b0174b4">
          <pickID>smi:scs/0.7/Pick#20100421051050GL#20100421051050GL.inp.loc.hypo71#MMLL#51071.81</pickID>
          <phase>S</phase>
          <azimuth>335.0</azimuth>
          <distance>0.8549316055</distance>
          <timeResidual>-0.69</timeResidual>
          <timeWeight>0.25</timeWeight>
        </arrival>
        <arrival publicID="smi:local/9894b03e-d965-4306-abcb-5f266ef87216">
          <pickID>smi:scs/0.7/Pick#20100421051050GL#20100421051050GL.inp.loc.hypo71#MOGL#51055.03</pickID>
          <phase>P</phase>
          <azimuth>333.0</azimuth>
          <distance>0.8873290137</distance>
          <timeResidual>0.26</timeResidual>
          <timeWeight>1.0</timeWeight>
        </arrival>
        <arrival publicID="smi:local/709f52e8-3991-4774-b951-d59b69040a2d">
          <pickID>smi:scs/0.7/Pick#20100421051050GL#20100421051050GL.inp.loc.hypo71#MOGL#51072.56</pickID>
          <phase>S</phase>
          <azimuth>333.0</azimuth>
          <distance>0.8873290137</distance>
          <timeResidual>0.11</timeResidual>
          <timeWeight>0.25</timeWeight>
        </arrival>
        <arrival publicID="smi:local/87cf536b-35f1-4033-9e97-a54238fbd89a">
          <pickID>smi:scs/0.7/Pick#20100421051050GL#20100421051050GL.inp.loc.hypo71#SABA#51118.60</pickID>
          <phase>P</phase>
          <azimuth>321.0</azimuth>
          <distance>3.000359971</distance>
          <timeResidual>-0.38</timeResidual>
          <timeWeight>0.25</timeWeight>
        </arrival>
        <arrival publicID="smi:local/451c913f-aa1f-4d63-8ec6-6cda53f4faf8">
          <pickID>smi:scs/0.7/Pick#20100421051050GL#20100421051050GL.inp.loc.hypo71#SCG#51054.60</pickID>
          <phase>P</phase>
          <azimuth>333.0</azimuth>
          <distance>0.8459323254</distance>
          <timeResidual>0.14</timeResidual>
          <timeWeight>1.0</timeWeight>
        </arrival>
        <arrival publicID="smi:local/8a4774a5-d370-423b-82a3-e0e916ece12a">
          <pickID>smi:scs/0.7/Pick#20100421051050GL#20100421051050GL.inp.loc.hypo71#SCG#51071.96</pickID>
          <phase>S</phase>
          <azimuth>333.0</azimuth>
          <distance>0.8459323254</distance>
          <timeResidual>0.06</timeResidual>
          <timeWeight>0.25</timeWeight>
        </arrival>
        <arrival publicID="smi:local/ca73dfff-0c5d-4e9e-8450-3c50f56d291b">
          <pickID>smi:scs/0.7/Pick#20100421051050GL#20100421051050GL.inp.loc.hypo71#SEG#51056.88</pickID>
          <phase>P</phase>
          <azimuth>349.0</azimuth>
          <distance>1.150107991</distance>
          <timeResidual>0.03</timeResidual>
          <timeWeight>1.0</timeWeight>
        </arrival>
        <arrival publicID="smi:local/60534d98-8485-4e2f-b008-398759624c27">
          <pickID>smi:scs/0.7/Pick#20100421051050GL#20100421051050GL.inp.loc.hypo71#SMRT#51120.80</pickID>
          <phase>P</phase>
          <azimuth>328.0</azimuth>
          <distance>3.256839453</distance>
          <timeResidual>-1.53</timeResidual>
          <timeWeight>0.25</timeWeight>
        </arrival>
        <arrival publicID="smi:local/6bbf0aeb-f3c4-4f97-a94e-609f3cf071f3">
          <pickID>smi:scs/0.7/Pick#20100421051050GL#20100421051050GL.inp.loc.hypo71#STG#51054.88</pickID>
          <phase>P</phase>
          <azimuth>336.0</azimuth>
          <distance>0.9008279338</distance>
          <timeResidual>-0.3</timeResidual>
          <timeWeight>0.5</timeWeight>
        </arrival>
        <arrival publicID="smi:local/77261da5-2f7d-4ce4-a668-520fa40b780a">
          <pickID>smi:scs/0.7/Pick#20100421051050GL#20100421051050GL.inp.loc.hypo71#SVB#5115.95</pickID>
          <phase>P</phase>
          <azimuth>179.0</azimuth>
          <distance>1.984341253</distance>
          <timeResidual>-0.23</timeResidual>
          <timeWeight>0.75</timeWeight>
        </arrival>
        <arrival publicID="smi:local/760929f7-5ed1-4452-acfc-fc3788be614e">
          <pickID>smi:scs/0.7/Pick#20100421051050GL#20100421051050GL.inp.loc.hypo71#TAG#51054.80</pickID>
          <phase>P</phase>
          <azimuth>335.0</azimuth>
          <distance>0.8495320374</distance>
          <timeResidual>0.05</timeResidual>
          <timeWeight>0.5</timeWeight>
        </arrival>
        <arrival publicID="smi:local/73f6b4f9-badd-4594-b5a6-be9592d1862d">
          <pickID>smi:scs/0.7/Pick#20100421051050GL#20100421051050GL.inp.loc.hypo71#TBG#51053.10</pickID>
          <phase>P</phase>
          <azimuth>330.0</azimuth>
          <distance>0.6749460043</distance>
          <timeResidual>0.19</timeResidual>
          <timeWeight>0.5</timeWeight>
        </arrival>
        <arrival publicID="smi:local/1a9b14f3-01bc-4809-9501-f84bca07524c">
          <pickID>smi:scs/0.7/Pick#20100421051050GL#20100421051050GL.inp.loc.hypo71#TOSP#51131.65</pickID>
          <phase>P</phase>
          <azimuth>169.0</azimuth>
          <distance>4.019078474</distance>
          <timeResidual>-0.68</timeResidual>
          <timeWeight>0.25</timeWeight>
        </arrival>
      </origin>
      <origin publicID="smi:scs/0.7/Origin#20100421051050GL#20100421051050GL.inp.loc.nlloc">
        <time>
          <value>2010-04-21T05:10:31.520000Z</value>
        </time>
        <latitude>
          <value>15.256062</value>
